CCSDS_OMM_VERS = 2.0
CREATION_DATE  = 
ORIGINATOR     = 

OBJECT_NAME    = ZK-1A R/B
OBJECT_ID      = 2025-292K
CENTER_NAME    = EARTH
REF_FRAME      = TEME
TIME_SYSTEM    = UTC
MEAN_ELEMENT_THEORY = SGP/SGP4

EPOCH          = 2025-12-22T04:13:50.835648
MEAN_MOTION    = 15.57537546
ECCENTRICITY   = .0209293
INCLINATION    = 97.7207
RA_OF_ASC_NODE = 69.7284
ARG_OF_PERICENTER = 331.1889
MEAN_ANOMALY   = 27.7932

EPHEMERIS_TYPE = 0
CLASSIFICATION_TYPE = U
NORAD_CAT_ID   = 67002
ELEMENT_SET_NO = 999
REV_AT_EPOCH   = 186
BSTAR          = .83309E-3
MEAN_MOTION_DOT = .176431E-2
MEAN_MOTION_DDOT = .10434E-4

CCSDS_OMM_VERS = 2.0
CREATION_DATE  = 
ORIGINATOR     = 

OBJECT_NAME    = STARLINK-35660
OBJECT_ID      = 2025-293A
CENTER_NAME    = EARTH
REF_FRAME      = TEME
TIME_SYSTEM    = UTC
MEAN_ELEMENT_THEORY = SGP/SGP4

EPOCH          = 2025-12-22T04:00:01.998720
MEAN_MOTION    = 15.88822311
ECCENTRICITY   = .0003108
INCLINATION    = 69.9941
RA_OF_ASC_NODE = 296.4370
ARG_OF_PERICENTER = 276.5656
MEAN_ANOMALY   = 96.5723

EPHEMERIS_TYPE = 0
CLASSIFICATION_TYPE = U
NORAD_CAT_ID   = 67003
ELEMENT_SET_NO = 999
REV_AT_EPOCH   = 169
BSTAR          = -.75298E-2
MEAN_MOTION_DOT = -.1836659E-1
MEAN_MOTION_DDOT = 0

CCSDS_OMM_VERS = 2.0
CREATION_DATE  = 
ORIGINATOR     = 

OBJECT_NAME    = STARLINK-35913
OBJECT_ID      = 2025-293B
CENTER_NAME    = EARTH
REF_FRAME      = TEME
TIME_SYSTEM    = UTC
MEAN_ELEMENT_THEORY = SGP/SGP4

EPOCH          = 2025-12-22T04:00:01.998720
MEAN_MOTION    = 15.88687622
ECCENTRICITY   = .0004052
INCLINATION    = 69.9940
RA_OF_ASC_NODE = 296.4343
ARG_OF_PERICENTER = 270.6398
MEAN_ANOMALY   = 104.7566

EPHEMERIS_TYPE = 0
CLASSIFICATION_TYPE = U
NORAD_CAT_ID   = 67004
ELEMENT_SET_NO = 999
REV_AT_EPOCH   = 169
BSTAR          = -.64922E-2
MEAN_MOTION_DOT = -.1606824E-1
MEAN_MOTION_DDOT = 0

CCSDS_OMM_VERS = 2.0
CREATION_DATE  = 
ORIGINATOR     = 

OBJECT_NAME    = STARLINK-36148
OBJECT_ID      = 2025-293C
CENTER_NAME    = EARTH
REF_FRAME      = TEME
TIME_SYSTEM    = UTC
MEAN_ELEMENT_THEORY = SGP/SGP4

EPOCH          = 2025-12-22T04:00:01.998720
MEAN_MOTION    = 15.88794888
ECCENTRICITY   = .000365
INCLINATION    = 69.9943
RA_OF_ASC_NODE = 296.4319
ARG_OF_PERICENTER = 266.7506
MEAN_ANOMALY   = 111.0930

EPHEMERIS_TYPE = 0
CLASSIFICATION_TYPE = U
NORAD_CAT_ID   = 67005
ELEMENT_SET_NO = 999
REV_AT_EPOCH   = 169
BSTAR          = -.75053E-2
MEAN_MOTION_DOT = -.1830162E-1
MEAN_MOTION_DDOT = 0

CCSDS_OMM_VERS = 2.0
CREATION_DATE  = 
ORIGINATOR     = 

OBJECT_NAME    = STARLINK-36156
OBJECT_ID      = 2025-293D
CENTER_NAME    = EARTH
REF_FRAME      = TEME
TIME_SYSTEM    = UTC
MEAN_ELEMENT_THEORY = SGP/SGP4

EPOCH          = 2025-12-22T04:00:01.998720
MEAN_MOTION    = 15.88692459
ECCENTRICITY   = .000467
INCLINATION    = 69.9941
RA_OF_ASC_NODE = 296.4244
ARG_OF_PERICENTER = 265.0517
MEAN_ANOMALY   = 118.4677

EPHEMERIS_TYPE = 0
CLASSIFICATION_TYPE = U
NORAD_CAT_ID   = 67006
ELEMENT_SET_NO = 999
REV_AT_EPOCH   = 169
BSTAR          = -.72498E-2
MEAN_MOTION_DOT = -.1770133E-1
MEAN_MOTION_DDOT = 0

CCSDS_OMM_VERS = 2.0
CREATION_DATE  = 
ORIGINATOR     = 

OBJECT_NAME    = STARLINK-36123
OBJECT_ID      = 2025-293E
CENTER_NAME    = EARTH
REF_FRAME      = TEME
TIME_SYSTEM    = UTC
MEAN_ELEMENT_THEORY = SGP/SGP4

EPOCH          = 2025-12-22T04:00:01.998720
MEAN_MOTION    = 15.88713310
ECCENTRICITY   = .0004332
INCLINATION    = 69.9939
RA_OF_ASC_NODE = 296.4274
ARG_OF_PERICENTER = 264.4645
MEAN_ANOMALY   = 116.4816

EPHEMERIS_TYPE = 0
CLASSIFICATION_TYPE = U
NORAD_CAT_ID   = 67007
ELEMENT_SET_NO = 999
REV_AT_EPOCH   = 169
BSTAR          = -.72604E-2
MEAN_MOTION_DOT = -.1773482E-1
MEAN_MOTION_DDOT = 0

CCSDS_OMM_VERS = 2.0
CREATION_DATE  = 
ORIGINATOR     = 

OBJECT_NAME    = STARLINK-36163
OBJECT_ID      = 2025-293F
CENTER_NAME    = EARTH
REF_FRAME      = TEME
TIME_SYSTEM    = UTC
MEAN_ELEMENT_THEORY = SGP/SGP4

EPOCH          = 2025-12-22T04:00:01.998720
MEAN_MOTION    = 15.88604332
ECCENTRICITY   = .0004194
INCLINATION    = 69.9939
RA_OF_ASC_NODE = 296.4206
ARG_OF_PERICENTER = 279.2149
MEAN_ANOMALY   = 107.6506

EPHEMERIS_TYPE = 0
CLASSIFICATION_TYPE = U
NORAD_CAT_ID   = 67008
ELEMENT_SET_NO = 999
REV_AT_EPOCH   = 169
BSTAR          = -.69656E-2
MEAN_MOTION_DOT = -.1702652E-1
MEAN_MOTION_DDOT = 0

CCSDS_OMM_VERS = 2.0
CREATION_DATE  = 
ORIGINATOR     = 

OBJECT_NAME    = STARLINK-36118
OBJECT_ID      = 2025-293G
CENTER_NAME    = EARTH
REF_FRAME      = TEME
TIME_SYSTEM    = UTC
MEAN_ELEMENT_THEORY = SGP/SGP4

EPOCH          = 2025-12-22T04:00:01.998720
MEAN_MOTION    = 15.88573608
ECCENTRICITY   = .0003828
INCLINATION    = 69.9939
RA_OF_ASC_NODE = 296.4173
ARG_OF_PERICENTER = 284.8943
MEAN_ANOMALY   = 104.7382

EPHEMERIS_TYPE = 0
CLASSIFICATION_TYPE = U
NORAD_CAT_ID   = 67009
ELEMENT_SET_NO = 999
REV_AT_EPOCH   = 163
BSTAR          = -.69498E-2
MEAN_MOTION_DOT = -.1696519E-1
MEAN_MOTION_DDOT = 0

CCSDS_OMM_VERS = 2.0
CREATION_DATE  = 
ORIGINATOR     = 

OBJECT_NAME    = STARLINK-36189
OBJECT_ID      = 2025-293H
CENTER_NAME    = EARTH
REF_FRAME      = TEME
TIME_SYSTEM    = UTC
MEAN_ELEMENT_THEORY = SGP/SGP4

EPOCH          = 2025-12-22T04:00:01.998720
MEAN_MOTION    = 15.88463743
ECCENTRICITY   = .0003695
INCLINATION    = 69.9938
RA_OF_ASC_NODE = 296.4115
ARG_OF_PERICENTER = 266.8286
MEAN_ANOMALY   = 127.7425

EPHEMERIS_TYPE = 0
CLASSIFICATION_TYPE = U
NORAD_CAT_ID   = 67010
ELEMENT_SET_NO = 999
REV_AT_EPOCH   = 169
BSTAR          = -.6314E-2
MEAN_MOTION_DOT = -.1520014E-1
MEAN_MOTION_DDOT = 0

CCSDS_OMM_VERS = 2.0
CREATION_DATE  = 
ORIGINATOR     = 

OBJECT_NAME    = STARLINK-36167
OBJECT_ID      = 2025-293J
CENTER_NAME    = EARTH
REF_FRAME      = TEME
TIME_SYSTEM    = UTC
MEAN_ELEMENT_THEORY = SGP/SGP4

EPOCH          = 2025-12-22T04:00:01.998720
MEAN_MOTION    = 15.88585000
ECCENTRICITY   = .0004009
INCLINATION    = 69.9934
RA_OF_ASC_NODE = 296.4140
ARG_OF_PERICENTER = 281.6459
MEAN_ANOMALY   = 110.1258

EPHEMERIS_TYPE = 0
CLASSIFICATION_TYPE = U
NORAD_CAT_ID   = 67011
ELEMENT_SET_NO = 999
REV_AT_EPOCH   = 163
BSTAR          = -.70442E-2
MEAN_MOTION_DOT = -.171762E-1
MEAN_MOTION_DDOT = 0

CCSDS_OMM_VERS = 2.0
CREATION_DATE  = 
ORIGINATOR     = 

OBJECT_NAME    = STARLINK-36175
OBJECT_ID      = 2025-293K
CENTER_NAME    = EARTH
REF_FRAME      = TEME
TIME_SYSTEM    = UTC
MEAN_ELEMENT_THEORY = SGP/SGP4

EPOCH          = 2025-12-22T04:00:01.998720
MEAN_MOTION    = 15.88490552
ECCENTRICITY   = .0003885
INCLINATION    = 69.9934
RA_OF_ASC_NODE = 296.4085
ARG_OF_PERICENTER = 261.5371
MEAN_ANOMALY   = 135.3475

EPHEMERIS_TYPE = 0
CLASSIFICATION_TYPE = U
NORAD_CAT_ID   = 67012
ELEMENT_SET_NO = 999
REV_AT_EPOCH   = 163
BSTAR          = -.6701E-2
MEAN_MOTION_DOT = -.1637521E-1
MEAN_MOTION_DDOT = 0

CCSDS_OMM_VERS = 2.0
CREATION_DATE  = 
ORIGINATOR     = 

OBJECT_NAME    = STARLINK-35856
OBJECT_ID      = 2025-293L
CENTER_NAME    = EARTH
REF_FRAME      = TEME
TIME_SYSTEM    = UTC
MEAN_ELEMENT_THEORY = SGP/SGP4

EPOCH          = 2025-12-22T04:00:01.998720
MEAN_MOTION    = 15.88480203
ECCENTRICITY   = .0004046
INCLINATION    = 69.9932
RA_OF_ASC_NODE = 296.4049
ARG_OF_PERICENTER = 272.2005
MEAN_ANOMALY   = 127.3587

EPHEMERIS_TYPE = 0
CLASSIFICATION_TYPE = U
NORAD_CAT_ID   = 67013
ELEMENT_SET_NO = 999
REV_AT_EPOCH   = 163
BSTAR          = -.64158E-2
MEAN_MOTION_DOT = -.1542558E-1
MEAN_MOTION_DDOT = 0

