ZK-1A R/B               
1 67002U 25292K   25356.17628282  .00176431  10434-4  83309-3 0  9996
2 67002  97.7207  69.7284 0209293 331.1889  27.7932 15.57537546  1866
STARLINK-35660          
1 67003U 25293A   25356.16668980 -.01836659  00000+0 -75298-2 0  9994
2 67003  69.9941 296.4370 0003108 276.5656  96.5723 15.88822311  1693
STARLINK-35913          
1 67004U 25293B   25356.16668980 -.01606824  00000+0 -64922-2 0  9996
2 67004  69.9940 296.4343 0004052 270.6398 104.7566 15.88687622  1691
STARLINK-36148          
1 67005U 25293C   25356.16668980 -.01830162  00000+0 -75053-2 0  9998
2 67005  69.9943 296.4319 0003650 266.7506 111.0930 15.88794888  1697
STARLINK-36156          
1 67006U 25293D   25356.16668980 -.01770133  00000+0 -72498-2 0  9990
2 67006  69.9941 296.4244 0004670 265.0517 118.4677 15.88692459  1690
STARLINK-36123          
1 67007U 25293E   25356.16668980 -.01773482  00000+0 -72604-2 0  9990
2 67007  69.9939 296.4274 0004332 264.4645 116.4816 15.88713310  1694
STARLINK-36163          
1 67008U 25293F   25356.16668980 -.01702652  00000+0 -69656-2 0  9995
2 67008  69.9939 296.4206 0004194 279.2149 107.6506 15.88604332  1690
STARLINK-36118          
1 67009U 25293G   25356.16668980 -.01696519  00000+0 -69498-2 0  9994
2 67009  69.9939 296.4173 0003828 284.8943 104.7382 15.88573608  1636
STARLINK-36189          
1 67010U 25293H   25356.16668980 -.01520014  00000+0 -63140-2 0  9990
2 67010  69.9938 296.4115 0003695 266.8286 127.7425 15.88463743  1692
STARLINK-36167          
1 67011U 25293J   25356.16668980 -.01717620  00000+0 -70442-2 0  9995
2 67011  69.9934 296.4140 0004009 281.6459 110.1258 15.88585000  1639
STARLINK-36175          
1 67012U 25293K   25356.16668980 -.01637521  00000+0 -67010-2 0  9994
2 67012  69.9934 296.4085 0003885 261.5371 135.3475 15.88490552  1636
STARLINK-35856          
1 67013U 25293L   25356.16668980 -.01542558  00000+0 -64158-2 0  9990
2 67013  69.9932 296.4049 0004046 272.2005 127.3587 15.88480203  1635
